{"type": "FeatureCollection", "features": [ {"type": "Feature", "properties": {"norad_id": 66667, "name": "PELICAN-5", "group": "last-30-days", "lat": -51.77727779007707, "lon": 80.42941752942855, "alt_km": 520.3921623257866, "timestamp": "2025-12-25T07:41:08.448036+00:00", "meta": {"OBJECT_NAME": "PELICAN-5", "OBJECT_ID": "2025-276B", "EPOCH": "2025-12-24T20:50:21.291936", "MEAN_MOTION": 15.17617636, "ECCENTRICITY": 0.00022313, "INCLINATION": 97.4411, "RA_OF_ASC_NODE": 70.4328, "ARG_OF_PERICENTER": 205.0757, "MEAN_ANOMALY": 155.0369, "EPHEMERIS_TYPE": 0, "CLASSIFICATION_TYPE": "U", "NORAD_CAT_ID": 66667, "ELEMENT_SET_NO": 999, "REV_AT_EPOCH": 396, "BSTAR": 0.00042560717, "MEAN_MOTION_DOT": 8.497e-05, "MEAN_MOTION_DDOT": 0}, "tle": {"line1": "1 66667U 25276B   25358.86830199  .00008497  00000+0  42561-3 0  9998", "line2": "2 66667  97.4411  70.4328 0002231 205.0757 155.0369 15.17617636  3967"}}, "geometry": {"type": "Point", "coordinates": [80.42941752942855, -51.77727779007707]}}, {"type": "Feature", "properties": {"norad_id": 66668, "name": "TRANSPORTER-15C", "group": "last-30-days", "lat": -28.987388692388656, "lon": 74.98864131552365, "alt_km": 457.9016479635138, "timestamp": "2025-12-25T07:41:08.448046+00:00", "meta": {"OBJECT_NAME": "TRANSPORTER-15C", "OBJECT_ID": "2025-276C", "EPOCH": "2025-12-22T16:55:56.699040", "MEAN_MOTION": 15.2172719, "ECCENTRICITY": 0.00267972, "INCLINATION": 97.4316, "RA_OF_ASC_NODE": 68.2383, "ARG_OF_PERICENTER": 290.281, "MEAN_ANOMALY": 69.5546, "EPHEMERIS_TYPE": 0, "CLASSIFICATION_TYPE": "U", "NORAD_CAT_ID": 66668, "ELEMENT_SET_NO": 999, "REV_AT_EPOCH": 363, "BSTAR": 0.088401316, "MEAN_MOTION_DOT": 0.02259996, "MEAN_MOTION_DDOT": 0}, "tle": {"line1": "1 66668U 25276C   25356.70551735  .02259996  00000+0  88401-1 0  9991", "line2": "2 66668  97.4316  68.2383 0026797 290.2810  69.5546 15.21727190  3639"}}, "geometry": {"type": "Point", "coordinates": [74.98864131552365, -28.987388692388656]}}, {"type": "Feature", "properties": {"norad_id": 66669, "name": "TRANSPORTER-15D", "group": "last-30-days", "lat": -19.771568372655913, "lon": -111.7414340001048, "alt_km": 417.9191892724075, "timestamp": "2025-12-25T07:41:08.448056+00:00", "meta": {"OBJECT_NAME": "TRANSPORTER-15D", "OBJECT_ID": "2025-276D", "EPOCH": "2025-12-21T02:39:18.210816", "MEAN_MOTION": 15.34134881, "ECCENTRICITY": 0.00748198, "INCLINATION": 97.4314, "RA_OF_ASC_NODE": 66.7079, "ARG_OF_PERICENTER": 232.3102, "MEAN_ANOMALY": 127.1341, "EPHEMERIS_TYPE": 0, "CLASSIFICATION_TYPE": "U", "NORAD_CAT_ID": 66669, "ELEMENT_SET_NO": 999, "REV_AT_EPOCH": 339, "BSTAR": 0.0027830351, "MEAN_MOTION_DOT": 0.00101698, "MEAN_MOTION_DDOT": 0}, "tle": {"line1": "1 66669U 25276D   25355.11062744  .00101698  00000+0  27830-2 0  9996", "line2": "2 66669  97.4314  66.7079 0074819 232.3102 127.1341 15.34134881  3392"}}, "geometry": {"type": "Point", "coordinates": [-111.7414340001048, -19.771568372655913]}}, {"type": "Feature", "properties": {"norad_id": 66670, "name": "HUNITY", "group": "last-30-days", "lat": -27.823340041338135, "lon": -113.1464986220422, "alt_km": 531.6661519752024, "timestamp": "2025-12-25T07:41:08.448066+00:00", "meta": {"OBJECT_NAME": "HUNITY", "OBJECT_ID": "2025-276E", "EPOCH": "2025-12-23T13:32:41.599104", "MEAN_MOTION": 15.14778724, "ECCENTRICITY": 0.00045159, "INCLINATION": 97.4308, "RA_OF_ASC_NODE": 69.0882, "ARG_OF_PERICENTER": 49.7951, "MEAN_ANOMALY": 310.3676, "EPHEMERIS_TYPE": 0, "CLASSIFICATION_TYPE": "U", "NORAD_CAT_ID": 66670, "ELEMENT_SET_NO": 999, "REV_AT_EPOCH": 376, "BSTAR": -0.0059587969, "MEAN_MOTION_DOT": -0.00108931, "MEAN_MOTION_DDOT": 0}, "tle": {"line1": "1 66670U 25276E   25357.56437036 -.00108931  00000+0 -59588-2 0  9993", "line2": "2 66670  97.4308  69.0882 0004515  49.7951 310.3676 15.14778724  3769"}}, "geometry": {"type": "Point", "coordinates": [-113.1464986220422, -27.823340041338135]}}, {"type": "Feature", "properties": {"norad_id": 66671, "name": "TRANSPORTER-15F", "group": "last-30-days", "lat": -61.22082950477282, "lon": -122.9162747953053, "alt_km": 520.1260378672423, "timestamp": "2025-12-25T07:41:08.448077+00:00", "meta": {"OBJECT_NAME": "TRANSPORTER-15F", "OBJECT_ID": "2025-276F", "EPOCH": "2025-12-24T21:07:26.365728", "MEAN_MOTION": 15.17112389, "ECCENTRICITY": 0.00024318, "INCLINATION": 97.4418, "RA_OF_ASC_NODE": 70.4181, "ARG_OF_PERICENTER": 236.8665, "MEAN_ANOMALY": 123.2335, "EPHEMERIS_TYPE": 0, "CLASSIFICATION_TYPE": "U", "NORAD_CAT_ID": 66671, "ELEMENT_SET_NO": 999, "REV_AT_EPOCH": 396, "BSTAR": -0.00039771297, "MEAN_MOTION_DOT": -7.935e-05, "MEAN_MOTION_DDOT": 0}, "tle": {"line1": "1 66671U 25276F   25358.88016627 -.00007935  00000+0 -39771-3 0  9994", "line2": "2 66671  97.4418  70.4181 0002431 236.8665 123.2335 15.17112389  3963"}}, "geometry": {"type": "Point", "coordinates": [-122.9162747953053, -61.22082950477282]}}, {"type": "Feature", "properties": {"norad_id": 66672, "name": "TRANSPORTER-15G", "group": "last-30-days", "lat": -31.33605247178748, "lon": -113.73453316363384, "alt_km": 518.759086706088, "timestamp": "2025-12-25T07:41:08.448086+00:00", "meta": {"OBJECT_NAME": "TRANSPORTER-15G", "OBJECT_ID": "2025-276G", "EPOCH": "2025-12-24T21:15:17.394336", "MEAN_MOTION": 15.1664794, "ECCENTRICITY": 0.0005482, "INCLINATION": 97.4389, "RA_OF_ASC_NODE": 70.4021, "ARG_OF_PERICENTER": 241.9188, "MEAN_ANOMALY": 118.1492, "EPHEMERIS_TYPE": 0, "CLASSIFICATION_TYPE": "U", "NORAD_CAT_ID": 66672, "ELEMENT_SET_NO": 999, "REV_AT_EPOCH": 396, "BSTAR": 0.00047201514, "MEAN_MOTION_DOT": 9.175e-05, "MEAN_MOTION_DDOT": 0}, "tle": {"line1": "1 66672U 25276G   25358.88561799  .00009175  00000+0  47202-3 0  9994", "line2": "2 66672  97.4389  70.4021 0005482 241.9188 118.1492 15.16647940  3962"}}, "geometry": {"type": "Point", "coordinates": [-113.73453316363384, -31.33605247178748]}}, {"type": "Feature", "properties": {"norad_id": 66673, "name": "TRANSPORTER-15H", "group": "last-30-days", "lat": -61.464387703072035, "lon": -123.06787272568243, "alt_km": 508.33292495535807, "timestamp": "2025-12-25T07:41:08.448100+00:00", "meta": {"OBJECT_NAME": "TRANSPORTER-15H", "OBJECT_ID": "2025-276H", "EPOCH": "2025-12-24T21:08:16.208160", "MEAN_MOTION": 15.18860763, "ECCENTRICITY": 0.00108946, "INCLINATION": 97.436, "RA_OF_ASC_NODE": 70.3973, "ARG_OF_PERICENTER": 293.3865, "MEAN_ANOMALY": 66.6223, "EPHEMERIS_TYPE": 0, "CLASSIFICATION_TYPE": "U", "NORAD_CAT_ID": 66673, "ELEMENT_SET_NO": 999, "REV_AT_EPOCH": 396, "BSTAR": 0.056291794, "MEAN_MOTION_DOT": 0.01286251, "MEAN_MOTION_DDOT": 0}, "tle": {"line1": "1 66673U 25276H   25358.88074315  .01286251  00000+0  56292-1 0  9998", "line2": "2 66673  97.4360  70.3973 0010894 293.3865  66.6223 15.18860763  3964"}}, "geometry": {"type": "Point", "coordinates": [-123.06787272568243, -61.464387703072035]}}, {"type": "Feature", "properties": {"norad_id": 66674, "name": "TRANSPORTER-15J", "group": "last-30-days", "lat": 9.600479199705818, "lon": -107.93004801128517, "alt_km": 537.6657306285642, "timestamp": "2025-12-25T07:41:08.448112+00:00", "meta": {"OBJECT_NAME": "TRANSPORTER-15J", "OBJECT_ID": "2025-276J", "EPOCH": "2025-12-21T10:53:16.478880", "MEAN_MOTION": 15.15191397, "ECCENTRICITY": 0.00065005, "INCLINATION": 97.4372, "RA_OF_ASC_NODE": 67.0325, "ARG_OF_PERICENTER": 333.1103, "MEAN_ANOMALY": 26.9792, "EPHEMERIS_TYPE": 0, "CLASSIFICATION_TYPE": "U", "NORAD_CAT_ID": 66674, "ELEMENT_SET_NO": 999, "REV_AT_EPOCH": 344, "BSTAR": -0.028180021, "MEAN_MOTION_DOT": -0.00494676, "MEAN_MOTION_DDOT": 0}, "tle": {"line1": "1 66674U 25276J   25355.45366295 -.00494676  00000+0 -28180-1 0  9998", "line2": "2 66674  97.4372  67.0325 0006500 333.1103  26.9792 15.15191397  3449"}}, "geometry": {"type": "Point", "coordinates": [-107.93004801128517, 9.600479199705818]}}, {"type": "Feature", "properties": {"norad_id": 66675, "name": "TRANSPORTER-15K", "group": "last-30-days", "lat": -55.21811950702796, "lon": -120.005857578161, "alt_km": 518.3504085916784, "timestamp": "2025-12-25T07:41:08.448123+00:00", "meta": {"OBJECT_NAME": "TRANSPORTER-15K", "OBJECT_ID": "2025-276K", "EPOCH": "2025-12-24T19:34:03.789696", "MEAN_MOTION": 15.1705378, "ECCENTRICITY": 0.00051211, "INCLINATION": 97.4383, "RA_OF_ASC_NODE": 70.3408, "ARG_OF_PERICENTER": 250.5048, "MEAN_ANOMALY": 109.5633, "EPHEMERIS_TYPE": 0, "CLASSIFICATION_TYPE": "U", "NORAD_CAT_ID": 66675, "ELEMENT_SET_NO": 999, "REV_AT_EPOCH": 395, "BSTAR": 0.00063013399, "MEAN_MOTION_DOT": 0.00012419, "MEAN_MOTION_DDOT": 0}, "tle": {"line1": "1 66675U 25276K   25358.81532164  .00012419  00000+0  63013-3 0  9997", "line2": "2 66675  97.4383  70.3408 0005121 250.5048 109.5633 15.17053780  3952"}}, "geometry": {"type": "Point", "coordinates": [-120.005857578161, -55.21811950702796]}}, {"type": "Feature", "properties": {"norad_id": 66676, "name": "TRANSPORTER-15L", "group": "last-30-days", "lat": -36.04383869561765, "lon": -114.62694261837562, "alt_km": 523.1439300586935, "timestamp": "2025-12-25T07:41:08.448133+00:00", "meta": {"OBJECT_NAME": "TRANSPORTER-15L", "OBJECT_ID": "2025-276L", "EPOCH": "2025-12-24T02:12:58.234752", "MEAN_MOTION": 15.15865945, "ECCENTRICITY": 0.00033167, "INCLINATION": 97.4383, "RA_OF_ASC_NODE": 69.6259, "ARG_OF_PERICENTER": 196.3095, "MEAN_ANOMALY": 163.8032, "EPHEMERIS_TYPE": 0, "CLASSIFICATION_TYPE": "U", "NORAD_CAT_ID": 66676, "ELEMENT_SET_NO": 999, "REV_AT_EPOCH": 384, "BSTAR": -0.0033340538, "MEAN_MOTION_DOT": -0.00063262, "MEAN_MOTION_DDOT": 0}, "tle": {"line1": "1 66676U 25276L   25358.09234068 -.00063262  00000+0 -33341-2 0  9994", "line2": "2 66676  97.4383  69.6259 0003316 196.3095 163.8032 15.15865945  3847"}}, "geometry": {"type": "Point", "coordinates": [-114.62694261837562, -36.04383869561765]}}]}